$$SOE
2460721.500000000, A.D. 2025-Feb-15 00:00:00.0000, 2.961858254798983E+08, 2.854249717483596E+08, 4.429032581794879E+07,
2460728.500000000, A.D. 2025-Feb-22 00:00:00.0000, 2.883319327981504E+08, 2.934339856692593E+08, 4.308217666618240E+07,
2460735.500000000, A.D. 2025-Mar-01 00:00:00.0000, 2.802802106468520E+08, 3.012418142007651E+08, 4.184446029047213E+07,
2460742.500000000, A.D. 2025-Mar-08 00:00:00.0000, 2.720361142852984E+08, 3.088430334880810E+08, 4.057801504155873E+07,
2460749.500000000, A.D. 2025-Mar-15 00:00:00.0000, 2.636052685580978E+08, 3.162323965816730E+08, 3.928370448072609E+07,
2460756.500000000, A.D. 2025-Mar-22 00:00:00.0000, 2.549934589825521E+08, 3.234048403528123E+08, 3.796241659859273E+07,
2460763.500000000, A.D. 2025-Mar-29 00:00:00.0000, 2.462066239026325E+08, 3.303554898276019E+08, 3.661506268049222E+07,
2460770.500000000, A.D. 2025-Apr-05 00:00:00.0000, 2.372508480566476E+08, 3.370796630596235E+08, 3.524257604753320E+07,
2460777.500000000, A.D. 2025-Apr-12 00:00:00.0000, 2.281323556519399E+08, 3.435728766275010E+08, 3.384591086087698E+07,
2460784.500000000, A.D. 2025-Apr-19 00:00:00.0000, 2.188575027800686E+08, 3.498308508616586E+08, 3.242604093739527E+07,
2460791.500000000, A.D. 2025-Apr-26 00:00:00.0000, 2.094327694665292E+08, 3.558495145848356E+08, 3.098395853844675E+07,
2460798.500000000, A.D. 2025-May-03 00:00:00.0000, 1.998647514919989E+08, 3.616250093746030E+08, 2.952067312627262E+07,
2460805.500000000, A.D. 2025-May-10 00:00:00.0000, 1.901601520376064E+08, 3.671536933471428E+08, 2.803721008956674E+07,
2460812.500000000, A.D. 2025-May-17 00:00:00.0000, 1.803257732152558E+08, 3.724321444135110E+08, 2.653460943508427E+07,
2460819.500000000, A.D. 2025-May-24 00:00:00.0000, 1.703685076815083E+08, 3.774571629481168E+08, 2.501392442860486E+07,
2460826.500000000, A.D. 2025-May-31 00:00:00.0000, 1.602953307779790E+08, 3.822257741770758E+08, 2.347622017618126E+07,
2460833.500000000, A.D. 2025-Jun-07 00:00:00.0000, 1.501132928239341E+08, 3.867352314892543E+08, 2.192257228456113E+07,
2460840.500000000, A.D. 2025-Jun-14 00:00:00.0000, 1.398295092217667E+08, 3.909830199988487E+08, 2.035406576646054E+07,
2460847.500000000, A.D. 2025-Jun-21 00:00:00.0000, 1.294511496132478E+08, 3.949668570876364E+08, 1.877179381575075E+07,
2460854.500000000, A.D. 2025-Jun-28 00:00:00.0000, 1.189854292397587E+08, 3.986846916987472E+08, 1.717685631407022E+07,
2460861.500000000, A.D. 2025-Jul-05 00:00:00.0000, 1.084396010163717E+08, 4.021347045428503E+08, 1.557035838756865E+07,
2460868.500000000, A.D. 2025-Jul-12 00:00:00.0000, 9.782094715189913E+07, 4.053153084153020E+08, 1.395340906057501E+07,
2460875.500000000, A.D. 2025-Jul-19 00:00:00.0000, 8.713677052649106E+07, 4.082251480561485E+08, 1.232711994532102E+07,
2460882.500000000, A.D. 2025-Jul-26 00:00:00.0000, 7.639438605840665E+07, 4.108630995055430E+08, 1.069260394726151E+07,
2460889.500000000, A.D. 2025-Aug-02 00:00:00.0000, 6.560111214634605E+07, 4.132282689869028E+08, 9.050973985040039E+06,
2460896.500000000, A.D. 2025-Aug-09 00:00:00.0000, 5.476426223090405E+07, 4.153199913153164E+08, 7.403341724885374E+06,
2460903.500000000, A.D. 2025-Aug-16 00:00:00.0000, 4.389113657137474E+07, 4.171378277814477E+08, 5.750816320175439E+06,
2460910.500000000, A.D. 2025-Aug-23 00:00:00.0000, 3.298901454897513E+07, 4.186815635420278E+08, 4.094503133442461E+06,
2460917.500000000, A.D. 2025-Aug-30 00:00:00.0000, 2.206514784322647E+07, 4.199512052467824E+08, 2.435502471495748E+06,
2460924.500000000, A.D. 2025-Sep-06 00:00:00.0000, 1.112675308157767E+07, 4.209469799176821E+08, 7.749085475704968E+05,
2460931.500000000, A.D. 2025-Sep-13 00:00:00.0000, 1.810023079687320E+05, 4.216693326081739E+08, -8.861913769526184E+05,
2460938.500000000, A.D. 2025-Sep-20 00:00:00.0000, -1.076498544731681E+07, 4.221189212095979E+08, -2.546718102923602E+06,
2460945.500000000, A.D. 2025-Sep-27 00:00:00.0000, -2.170415042984863E+07, 4.222966115372569E+08, -4.205601696221858E+06,
2460952.500000000, A.D. 2025-Oct-04 00:00:00.0000, -3.262949826177783E+07, 4.222034732567175E+08, -5.861782552056372E+06,
2460959.500000000, A.D. 2025-Oct-11 00:00:00.0000, -4.353410624572847E+07, 4.218407757280020E+08, -7.514212361895144E+06,
2460966.500000000, A.D. 2025-Oct-18 00:00:00.0000, -5.441112957964140E+07, 4.212099835146559E+08, -9.161855030256242E+06,
2460973.500000000, A.D. 2025-Oct-25 00:00:00.0000, -6.525380733500212E+07, 4.203127515893850E+08, -1.080368755243957E+07,
2460980.500000000, A.D. 2025-Nov-01 00:00:00.0000, -7.605546815236768E+07, 4.191509202712879E+08, -1.243870085492471E+07,
2460987.500000000, A.D. 2025-Nov-08 00:00:00.0000, -8.680953561474881E+07, 4.177265098821132E+08, -1.406590060365632E+07,
2460994.500000000, A.D. 2025-Nov-15 00:00:00.0000, -9.750953314778267E+07, 4.160417150815319E+08, -1.568430799815062E+07,
2461001.500000000, A.D. 2025-Nov-22 00:00:00.0000, -1.081490880424594E+08, 4.140988991201030E+08, -1.729296057009155E+07,
2461008.500000000, A.D. 2025-Nov-29 00:00:00.0000, -1.187219347536212E+08, 4.119005891644367E+08, -1.889091287964424E+07,
2461015.500000000, A.D. 2025-Dec-06 00:00:00.0000, -1.292219197513123E+08, 4.094494725787644E+08, -2.047723691217934E+07,
2461022.500000000, A.D. 2025-Dec-13 00:00:00.0000, -1.396430074900766E+08, 4.067483908084182E+08, -2.205102249062499E+07,
2461029.500000000, A.D. 2025-Dec-20 00:00:00.0000, -1.499792840064571E+08, 4.038003319027970E+08, -2.361137793994749E+07,
2461036.500000000, A.D. 2025-Dec-27 00:00:00.0000, -1.602249592232368E+08, 4.006084242887088E+08, -2.515743069432983E+07,
2461043.500000000, A.D. 2026-Jan-03 00:00:00.0000, -1.703743694217646E+08, 3.971759311963116E+08, -2.668832776438414E+07,
2461050.500000000, A.D. 2026-Jan-10 00:00:00.0000, -1.804219797756188E+08, 3.935062450731484E+08, -2.820323613037924E+07,
2461057.500000000, A.D. 2026-Jan-17 00:00:00.0000, -1.903623867177285E+08, 3.896028819082614E+08, -2.970134309073409E+07,
2461064.500000000, A.D. 2026-Jan-24 00:00:00.0000, -2.001903200688853E+08, 3.854694755020910E+08, -3.118185657161851E+07,
2461071.500000000, A.D. 2026-Jan-31 00:00:00.0000, -2.099006449112019E+08, 3.811097716872705E+08, -3.264400540110688E+07,
2461078.500000000, A.D. 2026-Feb-07 00:00:00.0000, -2.194883631530373E+08, 3.765276224551350E+08, -3.408703955908234E+07,
2461085.500000000, A.D. 2026-Feb-14 00:00:00.0000, -2.289486145411103E+08, 3.717269799845297E+08, -3.551023042844087E+07,
2461092.500000000, A.D. 2026-Feb-21 00:00:00.0000, -2.382766767416422E+08, 3.667118911614599E+08, -3.691287103729424E+07,
2461099.500000000, A.D. 2026-Feb-28 00:00:00.0000, -2.474679655855358E+08, 3.614864937547662E+08, -3.829427610014306E+07,
2461106.500000000, A.D. 2026-Mar-07 00:00:00.0000, -2.565180375451877E+08, 3.560550123096797E+08, -3.965378183061740E+07,
2461113.500000000, A.D. 2026-Mar-14 00:00:00.0000, -2.654225916736746E+08, 3.504217514340709E+08, -4.099074597210197E+07,
2461120.500000000, A.D. 2026-Mar-21 00:00:00.0000, -2.741774692330295E+08, 3.445910893800217E+08, -4.230454797379623E+07,
2461127.500000000, A.D. 2026-Mar-28 00:00:00.0000, -2.827786530328094E+08, 3.385674729571588E+08, -4.359458904585323E+07,
2461134.500000000, A.D. 2026-Apr-04 00:00:00.0000, -2.912222670922682E+08, 3.323554128193503E+08, -4.486029211897659E+07,
2461141.500000000, A.D. 2026-Apr-11 00:00:00.0000, -2.995045763614061E+08, 3.259594787696680E+08, -4.610110176436521E+07,
2461148.500000000, A.D. 2026-Apr-18 00:00:00.0000, -3.076219863514067E+08, 3.193842950809649E+08, -4.731648409052886E+07,
2461155.500000000, A.D. 2026-Apr-25 00:00:00.0000, -3.155710426385424E+08, 3.126345358506382E+08, -4.850592662147026E+07,
2461162.500000000, A.D. 2026-May-02 00:00:00.0000, -3.233484302204121E+08, 3.057149203635871E+08, -4.966893816301498E+07,
2461169.500000000, A.D. 2026-May-09 00:00:00.0000, -3.309509726087383E+08, 2.986302084003292E+08, -5.080504867560501E+07,
2461176.500000000, A.D. 2026-May-16 00:00:00.0000, -3.383756302886570E+08, 2.913851956308690E+08, -5.191380917813189E+07,
2461183.500000000, A.D. 2026-May-23 00:00:00.0000, -3.456194985001416E+08, 2.839847101175130E+08, -5.299479160492062E+07,
2461190.500000000, A.D. 2026-May-30 00:00:00.0000, -3.526798064285526E+08, 2.764336102462089E+08, -5.404758840014237E+07,
2461197.500000000, A.D. 2026-Jun-06 00:00:00.0000, -3.595539181304068E+08, 2.687367808132684E+08, -5.507181208935887E+07,
2461204.500000000, A.D. 2026-Jun-13 00:00:00.0000, -3.662393315357135E+08, 2.608991274650210E+08, -5.606709514886566E+07,
2461211.500000000, A.D. 2026-Jun-20 00:00:00.0000, -3.727336760377962E+08, 2.529255724141300E+08, -5.703308988903514E+07,
2461218.500000000, A.D. 2026-Jun-27 00:00:00.0000, -3.790347103805999E+08, 2.448210510936133E+08, -5.796946822632331E+07,
2461225.500000000, A.D. 2026-Jul-04 00:00:00.0000, -3.851403208524315E+08, 2.365905089755553E+08, -5.887592140962233E+07,
2461232.500000000, A.D. 2026-Jul-11 00:00:00.0000, -3.910485195388967E+08, 2.282388984227983E+08, -5.975215973659480E+07,
2461239.500000000, A.D. 2026-Jul-18 00:00:00.0000, -3.967574425484793E+08, 2.197711755981614E+08, -6.059791226758268E+07,
2461246.500000000, A.D. 2026-Jul-25 00:00:00.0000, -4.022653481924022E+08, 2.111922974320118E+08, -6.141292654015796E+07,
2461253.500000000, A.D. 2026-Aug-01 00:00:00.0000, -4.075706150766590E+08, 2.025072185978110E+08, -6.219696829362814E+07,
2461260.500000000, A.D. 2026-Aug-08 00:00:00.0000, -4.126717398971291E+08, 1.937208884572732E+08, -6.294982122702236E+07,
2461267.500000000, A.D. 2026-Aug-15 00:00:00.0000, -4.175673345282387E+08, 1.848382484227914E+08, -6.367128679259020E+07,
2461274.500000000, A.D. 2026-Aug-22 00:00:00.0000, -4.222561231718069E+08, 1.758642309553353E+08, -6.436118385597826E+07,
2461281.500000000, A.D. 2026-Aug-29 00:00:00.0000, -4.267369418616967E+08, 1.668037588224010E+08, -6.501934812648018E+07,
2461288.500000000, A.D. 2026-Sep-05 00:00:00.0000, -4.310087381963163E+08, 1.576617417464893E+08, -6.564563178854439E+07,
$$EOE